{"type": "FeatureCollection", "features": [ {"type": "Feature", "properties": {"norad_id": 30846, "name": "FENGYUN 1C DEB", "group": "fengyun-1c-debris", "lat": 74.90093456953538, "lon": 26.028361069317434, "alt_km": 778.8803614535955, "timestamp": "2025-12-20T14:38:02.248837+00:00", "meta": {"OBJECT_NAME": "FENGYUN 1C DEB", "OBJECT_ID": "1999-025AWG", "EPOCH": "2025-12-19T09:59:04.674048", "MEAN_MOTION": 14.41574241, "ECCENTRICITY": 0.0053926, "INCLINATION": 99.3205, "RA_OF_ASC_NODE": 167.2311, "ARG_OF_PERICENTER": 316.8202, "MEAN_ANOMALY": 73.2285, "EPHEMERIS_TYPE": 0, "CLASSIFICATION_TYPE": "U", "NORAD_CAT_ID": 30846, "ELEMENT_SET_NO": 999, "REV_AT_EPOCH": 98026, "BSTAR": 0.00055453, "MEAN_MOTION_DOT": 1.782e-05, "MEAN_MOTION_DDOT": 0}, "tle": {"line1": "1 30846U 99025AWG 25353.41602632  .00001782  00000+0  55453-3 0  9990", "line2": "2 30846  99.3205 167.2311 0053926 316.8202  73.2285 14.41574241980264"}}, "geometry": {"type": "Point", "coordinates": [26.028361069317434, 74.90093456953538]}}, {"type": "Feature", "properties": {"norad_id": 30847, "name": "FENGYUN 1C DEB", "group": "fengyun-1c-debris", "lat": -18.696355621796307, "lon": -28.358832544021617, "alt_km": 853.5390601337076, "timestamp": "2025-12-20T14:38:02.248848+00:00", "meta": {"OBJECT_NAME": "FENGYUN 1C DEB", "OBJECT_ID": "1999-025AWH", "EPOCH": "2025-12-18T09:17:58.177824", "MEAN_MOTION": 14.17062342, "ECCENTRICITY": 0.00654917, "INCLINATION": 98.731, "RA_OF_ASC_NODE": 152.4404, "ARG_OF_PERICENTER": 311.8702, "MEAN_ANOMALY": 77.2271, "EPHEMERIS_TYPE": 0, "CLASSIFICATION_TYPE": "U", "NORAD_CAT_ID": 30847, "ELEMENT_SET_NO": 999, "REV_AT_EPOCH": 96135, "BSTAR": 0.001633648, "MEAN_MOTION_DOT": 3.314e-05, "MEAN_MOTION_DDOT": 0}, "tle": {"line1": "1 30847U 99025AWH 25352.38747891  .00003314  00000+0  16336-2 0  9992", "line2": "2 30847  98.7310 152.4404 0065491 311.8702  77.2271 14.17062342961359"}}, "geometry": {"type": "Point", "coordinates": [-28.358832544021617, -18.696355621796307]}}, {"type": "Feature", "properties": {"norad_id": 30848, "name": "FENGYUN 1C DEB", "group": "fengyun-1c-debris", "lat": 72.2385705779841, "lon": 159.95839991529917, "alt_km": 785.8535996658111, "timestamp": "2025-12-20T14:38:02.248859+00:00", "meta": {"OBJECT_NAME": "FENGYUN 1C DEB", "OBJECT_ID": "1999-025AWJ", "EPOCH": "2025-12-18T12:04:06.580416", "MEAN_MOTION": 14.34520207, "ECCENTRICITY": 0.00434855, "INCLINATION": 99.0567, "RA_OF_ASC_NODE": 187.6153, "ARG_OF_PERICENTER": 319.2075, "MEAN_ANOMALY": 40.5855, "EPHEMERIS_TYPE": 0, "CLASSIFICATION_TYPE": "U", "NORAD_CAT_ID": 30848, "ELEMENT_SET_NO": 999, "REV_AT_EPOCH": 97389, "BSTAR": 0.0009556516, "MEAN_MOTION_DOT": 2.677e-05, "MEAN_MOTION_DDOT": 0}, "tle": {"line1": "1 30848U 99025AWJ 25352.50285394  .00002677  00000+0  95565-3 0  9995", "line2": "2 30848  99.0567 187.6153 0043485 319.2075  40.5855 14.34520207973894"}}, "geometry": {"type": "Point", "coordinates": [159.95839991529917, 72.2385705779841]}}, {"type": "Feature", "properties": {"norad_id": 30849, "name": "FENGYUN 1C DEB", "group": "fengyun-1c-debris", "lat": 43.869287088470045, "lon": 45.95864899580202, "alt_km": 808.6662346933799, "timestamp": "2025-12-20T14:38:02.248868+00:00", "meta": {"OBJECT_NAME": "FENGYUN 1C DEB", "OBJECT_ID": "1999-025AWK", "EPOCH": "2025-12-19T15:27:12.731040", "MEAN_MOTION": 14.18892004, "ECCENTRICITY": 0.0047911, "INCLINATION": 99.0479, "RA_OF_ASC_NODE": 53.7843, "ARG_OF_PERICENTER": 346.0232, "MEAN_ANOMALY": 167.3066, "EPHEMERIS_TYPE": 0, "CLASSIFICATION_TYPE": "U", "NORAD_CAT_ID": 30849, "ELEMENT_SET_NO": 999, "REV_AT_EPOCH": 96470, "BSTAR": 0.00099381, "MEAN_MOTION_DOT": 2.047e-05, "MEAN_MOTION_DDOT": 0}, "tle": {"line1": "1 30849U 99025AWK 25353.64389735  .00002047  00000+0  99381-3 0  9997", "line2": "2 30849  99.0479  53.7843 0047911 346.0232 167.3066 14.18892004964708"}}, "geometry": {"type": "Point", "coordinates": [45.95864899580202, 43.869287088470045]}}, {"type": "Feature", "properties": {"norad_id": 30850, "name": "FENGYUN 1C DEB", "group": "fengyun-1c-debris", "lat": -79.11858824373054, "lon": -10.523515260872323, "alt_km": 841.8384447245198, "timestamp": "2025-12-20T14:38:02.248878+00:00", "meta": {"OBJECT_NAME": "FENGYUN 1C DEB", "OBJECT_ID": "1999-025AWL", "EPOCH": "2025-12-20T02:16:03.923904", "MEAN_MOTION": 14.1633567, "ECCENTRICITY": 0.01091401, "INCLINATION": 98.3949, "RA_OF_ASC_NODE": 219.1813, "ARG_OF_PERICENTER": 176.274, "MEAN_ANOMALY": 339.8012, "EPHEMERIS_TYPE": 0, "CLASSIFICATION_TYPE": "U", "NORAD_CAT_ID": 30850, "ELEMENT_SET_NO": 999, "REV_AT_EPOCH": 95902, "BSTAR": 0.0013680284, "MEAN_MOTION_DOT": 2.838e-05, "MEAN_MOTION_DDOT": 0}, "tle": {"line1": "1 30850U 99025AWL 25354.09448986  .00002838  00000+0  13680-2 0  9998", "line2": "2 30850  98.3949 219.1813 0109140 176.2740 339.8012 14.16335670959024"}}, "geometry": {"type": "Point", "coordinates": [-10.523515260872323, -79.11858824373054]}}, {"type": "Feature", "properties": {"norad_id": 30852, "name": "FENGYUN 1C DEB", "group": "fengyun-1c-debris", "lat": 73.4038698134956, "lon": -18.912978892637845, "alt_km": 880.5002859209171, "timestamp": "2025-12-20T14:38:02.248888+00:00", "meta": {"OBJECT_NAME": "FENGYUN 1C DEB", "OBJECT_ID": "1999-025AWN", "EPOCH": "2025-12-20T00:39:00.524160", "MEAN_MOTION": 14.10296382, "ECCENTRICITY": 0.00561278, "INCLINATION": 98.7332, "RA_OF_ASC_NODE": 11.5683, "ARG_OF_PERICENTER": 213.6978, "MEAN_ANOMALY": 146.062, "EPHEMERIS_TYPE": 0, "CLASSIFICATION_TYPE": "U", "NORAD_CAT_ID": 30852, "ELEMENT_SET_NO": 999, "REV_AT_EPOCH": 96485, "BSTAR": 0.00032538875, "MEAN_MOTION_DOT": 5.43e-06, "MEAN_MOTION_DDOT": 0}, "tle": {"line1": "1 30852U 99025AWN 25354.02708940  .00000543  00000+0  32539-3 0  9998", "line2": "2 30852  98.7332  11.5683 0056127 213.6978 146.0620 14.10296382964850"}}, "geometry": {"type": "Point", "coordinates": [-18.912978892637845, 73.4038698134956]}}, {"type": "Feature", "properties": {"norad_id": 30856, "name": "FENGYUN 1C DEB", "group": "fengyun-1c-debris", "lat": 13.581152552268632, "lon": 1.1395646501692458, "alt_km": 697.0544862456609, "timestamp": "2025-12-20T14:38:02.248898+00:00", "meta": {"OBJECT_NAME": "FENGYUN 1C DEB", "OBJECT_ID": "1999-025AWS", "EPOCH": "2025-12-17T11:17:31.756416", "MEAN_MOTION": 14.4633817, "ECCENTRICITY": 0.00876084, "INCLINATION": 98.1983, "RA_OF_ASC_NODE": 176.1067, "ARG_OF_PERICENTER": 224.5578, "MEAN_ANOMALY": 165.9609, "EPHEMERIS_TYPE": 0, "CLASSIFICATION_TYPE": "U", "NORAD_CAT_ID": 30856, "ELEMENT_SET_NO": 999, "REV_AT_EPOCH": 96594, "BSTAR": 0.0038538132, "MEAN_MOTION_DOT": 0.00014481, "MEAN_MOTION_DDOT": 0}, "tle": {"line1": "1 30856U 99025AWS 25351.47050644  .00014481  00000+0  38538-2 0  9999", "line2": "2 30856  98.1983 176.1067 0087608 224.5578 165.9609 14.46338170965948"}}, "geometry": {"type": "Point", "coordinates": [1.1395646501692458, 13.581152552268632]}}, {"type": "Feature", "properties": {"norad_id": 30857, "name": "FENGYUN 1C DEB", "group": "fengyun-1c-debris", "lat": 26.31111117504634, "lon": 169.38478518985875, "alt_km": 732.0187765053388, "timestamp": "2025-12-20T14:38:02.248908+00:00", "meta": {"OBJECT_NAME": "FENGYUN 1C DEB", "OBJECT_ID": "1999-025AWT", "EPOCH": "2025-12-10T22:20:28.597056", "MEAN_MOTION": 14.51403304, "ECCENTRICITY": 0.0041899, "INCLINATION": 98.9745, "RA_OF_ASC_NODE": 334.5727, "ARG_OF_PERICENTER": 300.5616, "MEAN_ANOMALY": 59.1445, "EPHEMERIS_TYPE": 0, "CLASSIFICATION_TYPE": "U", "NORAD_CAT_ID": 30857, "ELEMENT_SET_NO": 999, "REV_AT_EPOCH": 96697, "BSTAR": 0.0076916, "MEAN_MOTION_DOT": 0.0003112, "MEAN_MOTION_DDOT": 0}, "tle": {"line1": "1 30857U 99025AWT 25344.93088654  .00031120  00000+0  76916-2 0  9996", "line2": "2 30857  98.9745 334.5727 0041899 300.5616  59.1445 14.51403304966970"}}, "geometry": {"type": "Point", "coordinates": [169.38478518985875, 26.31111117504634]}}, {"type": "Feature", "properties": {"norad_id": 30858, "name": "FENGYUN 1C DEB", "group": "fengyun-1c-debris", "lat": -80.69304092970293, "lon": 123.0836663916935, "alt_km": 862.1840356746261, "timestamp": "2025-12-20T14:38:02.248918+00:00", "meta": {"OBJECT_NAME": "FENGYUN 1C DEB", "OBJECT_ID": "1999-025AWU", "EPOCH": "2025-12-19T22:56:27.943872", "MEAN_MOTION": 14.17791364, "ECCENTRICITY": 0.0030665, "INCLINATION": 98.7982, "RA_OF_ASC_NODE": 51.5198, "ARG_OF_PERICENTER": 89.8206, "MEAN_ANOMALY": 87.7385, "EPHEMERIS_TYPE": 0, "CLASSIFICATION_TYPE": "U", "NORAD_CAT_ID": 30858, "ELEMENT_SET_NO": 999, "REV_AT_EPOCH": 97082, "BSTAR": 0.00028998, "MEAN_MOTION_DOT": 5.5e-06, "MEAN_MOTION_DDOT": 0}, "tle": {"line1": "1 30858U 99025AWU 25353.95587898  .00000550  00000+0  28998-3 0  9994", "line2": "2 30858  98.7982  51.5198 0030665  89.8206  87.7385 14.17791364970828"}}, "geometry": {"type": "Point", "coordinates": [123.0836663916935, -80.69304092970293]}}, {"type": "Feature", "properties": {"norad_id": 30859, "name": "FENGYUN 1C DEB", "group": "fengyun-1c-debris", "lat": 21.052692868905172, "lon": -131.35431146772052, "alt_km": 747.4290381140772, "timestamp": "2025-12-20T14:38:02.248928+00:00", "meta": {"OBJECT_NAME": "FENGYUN 1C DEB", "OBJECT_ID": "1999-025AWV", "EPOCH": "2025-12-20T02:18:22.883616", "MEAN_MOTION": 14.49201017, "ECCENTRICITY": 0.00307252, "INCLINATION": 98.9213, "RA_OF_ASC_NODE": 44.6365, "ARG_OF_PERICENTER": 7.7582, "MEAN_ANOMALY": 352.4079, "EPHEMERIS_TYPE": 0, "CLASSIFICATION_TYPE": "U", "NORAD_CAT_ID": 30859, "ELEMENT_SET_NO": 999, "REV_AT_EPOCH": 97141, "BSTAR": 0.0016611266, "MEAN_MOTION_DOT": 6.318e-05, "MEAN_MOTION_DDOT": 0}, "tle": {"line1": "1 30859U 99025AWV 25354.09609819  .00006318  00000+0  16611-2 0  9995", "line2": "2 30859  98.9213  44.6365 0030725   7.7582 352.4079 14.49201017971414"}}, "geometry": {"type": "Point", "coordinates": [-131.35431146772052, 21.052692868905172]}}]}